[{"OBJECT_NAME":"FLOCK 4G-30","OBJECT_ID":"2025-009BY","EPOCH":"2026-03-09T17:00:32.842080","MEAN_MOTION":15.27244548,"ECCENTRICITY":0.00037948,"INCLINATION":97.3969,"RA_OF_ASC_NODE":150.6012,"ARG_OF_PERICENTER":342.4152,"MEAN_ANOMALY":17.6955,"EPHEMERIS_TYPE":0,"CLASSIFICATION_TYPE":"U","NORAD_CAT_ID":62679,"ELEMENT_SET_NO":999,"REV_AT_EPOCH":12134,"BSTAR":0.00049474629,"MEAN_MOTION_DOT":0.00013147,"MEAN_MOTION_DDOT":0},{"OBJECT_NAME":"STARLINK-35836","OBJECT_ID":"2025-268Q","EPOCH":"2026-03-09T03:44:48.855264","MEAN_MOTION":15.27581175,"ECCENTRICITY":0.00017917,"INCLINATION":43.0058,"RA_OF_ASC_NODE":350.4695,"ARG_OF_PERICENTER":280.5587,"MEAN_ANOMALY":79.5063,"EPHEMERIS_TYPE":0,"CLASSIFICATION_TYPE":"U","NORAD_CAT_ID":66571,"ELEMENT_SET_NO":999,"REV_AT_EPOCH":1787,"BSTAR":0.0014684218,"MEAN_MOTION_DOT":0.00040369,"MEAN_MOTION_DDOT":0}]
